QIANFAN-65              
1 62795U 25016L   25296.58889613  .00000071  00000+0  90318-4 0  9997
2 62795  88.9722 108.2470 0015341 124.5484 235.7118 13.50973109 40471
QIANFAN-66              
1 62796U 25016M   25296.61777640  .00000054  00000+0  64953-4 0  9995
2 62796  88.9746 108.2043 0016514 120.6805 239.5976 13.50977134 40523
QIANFAN-67              
1 62797U 25016N   25296.62181538  .00000064  00000+0  80733-4 0  9997
2 62797  88.9732 108.2343 0016377 126.9511 233.3142 13.50969876 40499
QIANFAN-68              
1 62798U 25016P   25296.61359833  .00000061  00000+0  75838-4 0  9999
2 62798  88.9736 108.2785 0016463 125.3657 234.9035 13.50972217 40473
QIANFAN-69              
1 62799U 25016Q   25296.63010727  .00000043  00000+0  48057-4 0  9991
2 62799  88.9718 108.1570 0017198 126.4540 233.8200 13.50969603 40516
QIANFAN-70              
1 62800U 25016R   25296.57234747  .00000075  00000+0  97498-4 0  9995
2 62800  88.9736 108.2909 0016934 117.6982 242.5889 13.50972256 40467
QIANFAN-71              
1 62801U 25016S   25296.64238822  .00000047  00000+0  54596-4 0  9993
2 62801  88.9733 108.2662 0017054 129.6486 230.6173 13.50973356 40474
QIANFAN-72              
1 62802U 25016T   25296.58478889  .00000079  00000+0  10387-3 0  9990
2 62802  88.9720 108.2905 0020179 137.1787 223.0941 13.50973097 40450
